{
    "links": {
        "self": "http://www.neowsapp.com/rest/v1/neo/3428529?api_key=iIulBulltgU6a56xZRHN4H3l9WmuAYTsLGpBGhQ2"
    },
    "id": "3428529",
    "neo_reference_id": "3428529",
    "name": "(2008 SV150)",
    "designation": "2008 SV150",
    "nasa_jpl_url": "http://ssd.jpl.nasa.gov/sbdb.cgi?sstr=3428529",
    "absolute_magnitude_h": 26.3,
    "estimated_diameter": {
        "kilometers": {
            "estimated_diameter_min": 0.0146067964,
            "estimated_diameter_max": 0.0326617897
        },
        "meters": {
            "estimated_diameter_min": 14.6067964271,
            "estimated_diameter_max": 32.6617897446
        },
        "miles": {
            "estimated_diameter_min": 0.0090762397,
            "estimated_diameter_max": 0.020295089
        },
        "feet": {
            "estimated_diameter_min": 47.92256199,
            "estimated_diameter_max": 107.1581062656
        }
    },
    "is_potentially_hazardous_asteroid": false,
    "close_approach_data": [
        {
            "close_approach_date": "2008-04-30",
            "close_approach_date_full": "2008-Apr-30 16:00",
            "epoch_date_close_approach": 1209571200000,
            "relative_velocity": {
                "kilometers_per_second": "12.1197842536",
                "kilometers_per_hour": "43631.2233128358",
                "miles_per_hour": "27110.7453968007"
            },
            "miss_distance": {
                "astronomical": "0.4193368671",
                "lunar": "163.1220413019",
                "kilometers": "62731902.130633077",
                "miles": "38979796.4667953826"
            },
            "orbiting_body": "Earth"
        },
        {
            "close_approach_date": "2008-09-26",
            "close_approach_date_full": "2008-Sep-26 03:36",
            "epoch_date_close_approach": 1222400160000,
            "relative_velocity": {
                "kilometers_per_second": "11.7557793945",
                "kilometers_per_hour": "42320.8058201539",
                "miles_per_hour": "26296.5029275284"
            },
            "miss_distance": {
                "astronomical": "0.0512748461",
                "lunar": "19.9459151329",
                "kilometers": "7670607.761137807",
                "miles": "4766294.6467514566"
            },
            "orbiting_body": "Earth"
        }
    ],
    "orbital_data": {
        "orbit_id": "6",
        "orbit_determination_date": "2017-04-06 09:02:48",
        "first_observation_date": "2008-09-29",
        "last_observation_date": "2008-10-01",
        "data_arc_in_days": 2,
        "observations_used": 14,
        "orbit_uncertainty": "8",
        "minimum_orbit_intersection": ".0512575",
        "jupiter_tisserand_invariant": "5.375",
        "epoch_osculation": "2454739.5",
        "eccentricity": ".0896198252400795",
        "semi_major_axis": "1.154336170173738",
        "inclination": "22.49363073223338",
        "ascending_node_longitude": "4.00688198909125",
        "orbital_period": "452.9986242489708",
        "perihelion_distance": "1.050884764334465",
        "perihelion_argument": "344.9209834941159",
        "aphelion_distance": "1.257787576013011",
        "perihelion_time": "2454720.526117553261",
        "mean_anomaly": "15.07862787033963",
        "mean_motion": ".7947044002547385",
        "equinox": "J2000",
        "orbit_class": {
            "orbit_class_type": "AMO",
            "orbit_class_description": "Near-Earth asteroid orbits similar to that of 1221 Amor",
            "orbit_class_range": "1.017 AU < q (perihelion) < 1.3 AU"
        }
    },
    "is_sentry_object": false
}